NORAD_CAT_ID,OBJECT_NAME,OBJECT_TYPE,EPOCH,MEAN_MOTION,ECCENTRICITY,INCLINATION,RA_OF_ASC_NODE,ARG_OF_PERICENTER,MEAN_ANOMALY,BSTAR,MEAN_MOTION_DOT,MEAN_MOTION_DDOT,TLE_LINE0,TLE_LINE1,TLE_LINE2,SEMIMAJOR_AXIS,PERIOD,APOGEE,PERIGEE,DECAYED
53925.0,STARLINK-5011,PAYLOAD,2023-09-18 17:23:53,15.08839637,0.0001547,53.2187,47.2874,84.7714,275.3454,6.8173e-05,7.97e-06,0.0,0 STARLINK-5011,1 53925U 22119AR  23261.72492198  .00000797  00000-0  68173-4 0  9997,2 53925  53.2187  47.2874 0001547  84.7714 275.3454 15.08839637 55518,6917.881,95.438,540.817,538.676,0.0
53925.0,STARLINK-5011,PAYLOAD,2023-09-19 10:53:07,15.08845553,0.0001549,53.2189,44.0167,85.6414,274.4755,5.7157e-05,6.22e-06,0.0,0 STARLINK-5011,1 53925U 22119AR  23262.45355804  .00000622  00000-0  57157-4 0  9997,2 53925  53.2189  44.0167 0001549  85.6414 274.4755 15.08845553 55203,6917.863,95.437,540.8,538.657,0.0
53925.0,STARLINK-5011,PAYLOAD,2023-09-19 17:14:39,15.08852247,0.0001578,53.2184,42.8287,63.9525,296.1629,0.00012712,1.736e-05,0.0,0 STARLINK-5011,1 53925U 22119AR  23262.71851137  .00001736  00000-0  12712-3 0  9990,2 53925  53.2184  42.8287 0001578  63.9525 296.1629 15.08852247 55244,6917.843,95.437,540.8,538.616,0.0
53925.0,STARLINK-5011,PAYLOAD,2023-09-20 09:08:32,15.08828139,0.0001661,53.219,39.8537,83.0068,277.1113,-1.8197e-05,-5.78e-06,0.0,0 STARLINK-5011,1 53925U 22119AR  23263.38093291 -.00000578  00000-0 -18197-4 0  9992,2 53925  53.2190  39.8537 0001661  83.0068 277.1113 15.08828139 55344,6917.917,95.438,540.931,538.633,0.0
53925.0,STARLINK-5011,PAYLOAD,2023-09-20 13:54:42,15.08824486,0.0001478,53.219,38.9614,74.0178,286.0977,-4.4847e-05,-1.001e-05,0.0,0 STARLINK-5011,1 53925U 22119AR  23263.57965787 -.00001001  00000-0 -44847-4 0  9994,2 53925  53.2190  38.9614 0001478  74.0178 286.0977 15.08824486 55795,6917.928,95.439,540.815,538.77,0.0
53925.0,STARLINK-5011,PAYLOAD,2023-09-20 15:30:05,15.08824857,0.0001567,53.2187,38.6629,81.5562,278.5608,-2.4463e-05,-6.77e-06,0.0,0 STARLINK-5011,1 53925U 22119AR  23263.64589748 -.00000677  00000-0 -24463-4 0  9991,2 53925  53.2187  38.6629 0001567  81.5562 278.5608 15.08824857 55804,6917.927,95.439,540.876,538.708,0.0
53925.0,STARLINK-5011,PAYLOAD,2023-09-21 08:59:19,15.08844298,0.0001298,53.2194,35.3911,87.7933,272.3208,-9.5648e-06,-4.4e-06,0.0,0 STARLINK-5011,1 53925U 22119AR  23264.37452813 -.00000440  00000-0 -95648-5 0  9996,2 53925  53.2194  35.3911 0001298  87.7933 272.3208 15.08844298 55495,6917.867,95.437,540.63,538.834,0.0
53925.0,STARLINK-5011,PAYLOAD,2023-09-21 13:45:28,15.08850071,0.0001338,53.2181,34.5025,56.657,303.455,0.00010186,1.334e-05,0.0,0 STARLINK-5011,1 53925U 22119AR  23264.57324195  .00001334  00000-0  10186-3 0  9992,2 53925  53.2181  34.5025 0001338  56.6570 303.4550 15.08850071 55947,6917.85,95.437,540.64,538.789,0.0
53925.0,STARLINK-5011,PAYLOAD,2023-09-21 15:20:51,15.08852615,0.0001421,53.2184,34.2022,81.1637,278.9516,0.00026408,3.919e-05,0.0,0 STARLINK-5011,1 53925U 22119AR  23264.63948349  .00003919  00000-0  26408-3 0  9997,2 53925  53.2184  34.2022 0001421  81.1637 278.9516 15.08852615 55533,6917.842,95.437,540.69,538.724,0.0
53925.0,STARLINK-5011,PAYLOAD,2023-09-22 08:50:06,15.08842015,0.0001497,53.2185,30.9317,76.4408,283.6751,0.00029938,4.48e-05,0.0,0 STARLINK-5011,1 53925U 22119AR  23265.36812929  .00004480  00000-0  29938-3 0  9997,2 53925  53.2185  30.9317 0001497  76.4408 283.6751 15.08842015 55649,6917.874,95.437,540.775,538.704,0.0
53925.0,STARLINK-5011,PAYLOAD,2023-09-22 13:36:15,15.08839857,0.000144,53.2191,30.0396,76.4905,283.6247,0.000243,3.581e-05,0.0,0 STARLINK-5011,1 53925U 22119AR  23265.56684559  .00003581  00000-0  24300-3 0  9994,2 53925  53.2191  30.0396 0001440  76.4905 283.6247 15.08839857 56094,6917.881,95.438,540.742,538.75,0.0
53925.0,STARLINK-5011,PAYLOAD,2023-09-22 15:11:38,15.08841249,0.0001472,53.2193,29.7423,77.5606,282.5551,0.00024477,3.61e-05,0.0,0 STARLINK-5011,1 53925U 22119AR  23265.63308437  .00003610  00000-0  24477-3 0  9998,2 53925  53.2193  29.7423 0001472  77.5606 282.5551 15.08841249 56103,6917.877,95.437,540.76,538.723,0.0
53925.0,STARLINK-5011,PAYLOAD,2023-09-23 11:51:39,15.0884666,0.0001528,53.2189,25.8773,90.188,269.9288,7.407e-06,-1.7e-06,0.0,0 STARLINK-5011,1 53925U 22119AR  23266.49420558 -.00000170  00000-0  74070-5 0  9997,2 53925  53.2189  25.8773 0001528  90.1880 269.9288 15.08846660 55815,6917.86,95.437,540.782,538.668,0.0
53925.0,STARLINK-5011,PAYLOAD,2023-09-23 13:27:02,15.08846101,0.0001451,53.2194,25.58,89.8685,270.2473,2.9661e-05,1.84e-06,0.0,0 STARLINK-5011,1 53925U 22119AR  23266.56044497  .00000184  00000-0  29661-4 0  9998,2 53925  53.2194  25.5800 0001451  89.8685 270.2473 15.08846101 56241,6917.862,95.437,540.731,538.723,0.0
53925.0,STARLINK-5011,PAYLOAD,2023-09-24 08:31:40,15.08837987,0.0001586,53.2203,22.0132,95.3411,264.7762,-2.4791e-05,-6.83e-06,0.0,0 STARLINK-5011,1 53925U 22119AR  23267.35533060 -.00000683  00000-0 -24791-4 0  9990,2 53925  53.2203  22.0132 0001586  95.3411 264.7762 15.08837987 55947,6917.887,95.438,540.849,538.654,0.0
53925.0,STARLINK-5011,PAYLOAD,2023-09-24 13:17:49,15.08843088,0.0001503,53.2199,21.1208,94.792,265.3244,1.6e-05,-3.3e-07,0.0,0 STARLINK-5011,1 53925U 22119AR  23267.55404575 -.00000033  00000-0  16000-4 0  9992,2 53925  53.2199  21.1208 0001503  94.7920 265.3244 15.08843088 56393,6917.871,95.437,540.776,538.696,0.0
53925.0,STARLINK-5011,PAYLOAD,2023-09-25 08:22:27,15.08838057,0.0001489,53.2195,17.5526,104.0257,256.09,4.1895e-05,3.79e-06,0.0,0 STARLINK-5011,1 53925U 22119AR  23268.34893057  .00000379  00000-0  41895-4 0  9999,2 53925  53.2195  17.5526 0001489 104.0257 256.0900 15.08838057 56095,6917.886,95.438,540.781,538.721,0.0
53925.0,STARLINK-5011,PAYLOAD,2023-09-25 13:08:36,15.08844138,0.0001682,53.2198,16.6602,111.161,248.9562,8.5176e-05,1.068e-05,0.0,0 STARLINK-5011,1 53925U 22119AR  23268.54764527  .00001068  00000-0  85176-4 0  9996,2 53925  53.2198  16.6602 0001682 111.1610 248.9562 15.08844138 56541,6917.868,95.437,540.896,538.569,0.0
53925.0,STARLINK-5011,PAYLOAD,2023-09-25 14:43:59,15.08851545,0.0001394,53.2194,16.3619,88.6498,271.4654,0.00015248,2.14e-05,0.0,0 STARLINK-5011,1 53925U 22119AR  23268.61388012  .00002140  00000-0  15248-3 0  9999,2 53925  53.2194  16.3619 0001394  88.6498 271.4654 15.08851545 56132,6917.845,95.437,540.674,538.746,0.0
53925.0,STARLINK-5011,PAYLOAD,2023-09-26 11:24:01,15.08834575,0.0001365,53.2181,12.4948,86.6655,273.4494,-2.1965e-05,-6.37e-06,0.0,0 STARLINK-5011,1 53925U 22119AR  23269.47501298 -.00000637  00000-0 -21965-4 0  9992,2 53925  53.2181  12.4948 0001365  86.6655 273.4494 15.08834575 56263,6917.897,95.438,540.706,538.818,0.0
53925.0,STARLINK-5011,PAYLOAD,2023-09-26 14:34:47,15.08836829,0.0001392,53.2178,11.9013,83.1161,276.999,5.9707e-05,6.62e-06,0.0,0 STARLINK-5011,1 53925U 22119AR  23269.60749281  .00000662  00000-0  59707-4 0  9994,2 53925  53.2178  11.9013 0001392  83.1161 276.9990 15.08836829 56702,6917.89,95.438,540.718,538.792,0.0
53925.0,STARLINK-5011,PAYLOAD,2023-09-27 12:50:11,15.08845074,0.0001391,53.2172,7.7382,90.5641,269.5511,0.00013767,1.904e-05,0.0,0 STARLINK-5011,1 53925U 22119AR  23270.53485095  .00001904  00000-0  13767-3 0  9993,2 53925  53.2172   7.7382 0001391  90.5641 269.5511 15.08845074 56846,6917.865,95.437,540.692,538.768,0.0
53925.0,STARLINK-5011,PAYLOAD,2023-09-28 12:40:58,15.08839671,0.0001373,53.2171,3.2802,76.992,283.1225,0.00019354,2.794e-05,0.0,0 STARLINK-5011,1 53925U 22119AR  23271.52845560  .00002794  00000-0  19354-3 0  9996,2 53925  53.2171   3.2802 0001373  76.9920 283.1225 15.08839671 56571,6917.881,95.438,540.696,538.797,0.0
53925.0,STARLINK-5011,PAYLOAD,2023-09-29 12:31:45,15.08844011,0.0001494,53.2181,358.819,71.5811,288.5343,5.0535e-05,5.16e-06,0.0,0 STARLINK-5011,1 53925U 22119AR  23272.52205526  .00000516  00000-0  50535-4 0  9996,2 53925  53.2181 358.8190 0001494  71.5811 288.5343 15.08844011 57143,6917.868,95.437,540.767,538.7,0.0
53925.0,STARLINK-5011,PAYLOAD,2023-09-30 10:47:08,15.08852061,0.0001507,53.2182,354.6547,82.0011,278.1152,9.935e-05,1.294e-05,0.0,0 STARLINK-5011,1 53925U 22119AR  23273.44940694  .00001294  00000-0  99350-4 0  9992,2 53925  53.2182 354.6547 0001507  82.0011 278.1152 15.08852061 56863,6917.844,95.437,540.751,538.666,0.0
53925.0,STARLINK-5011,PAYLOAD,2023-10-01 12:13:18,15.08852676,0.0001647,53.2188,349.901,89.8851,270.233,0.00013842,1.916e-05,0.0,0 STARLINK-5011,1 53925U 22119AR  23274.50924422  .00001916  00000-0  13842-3 0  9993,2 53925  53.2188 349.9010 0001647  89.8851 270.2330 15.08852676 57025,6917.842,95.437,540.846,538.567,0.0
53925.0,STARLINK-5011,PAYLOAD,2023-10-01 21:45:37,15.08846441,0.0001427,53.2179,348.1156,86.4044,273.7111,2.8267e-05,1.62e-06,0.0,0 STARLINK-5011,1 53925U 22119AR  23274.90668503  .00000162  00000-0  28267-4 0  9992,2 53925  53.2179 348.1156 0001427  86.4044 273.7111 15.08846441 57084,6917.861,95.437,540.713,538.739,0.0
53925.0,STARLINK-5011,PAYLOAD,2023-10-02 10:28:43,15.0882457,0.0001591,53.218,345.7349,76.6669,283.4501,-0.00033312,-5.583e-05,0.0,0 STARLINK-5011,1 53925U 22119AR  23275.43661936 -.00005583  00000-0 -33312-3 0  9994,2 53925  53.2180 345.7349 0001591  76.6669 283.4501 15.08824570 57168,6917.928,95.439,540.893,538.692,0.0
53925.0,STARLINK-5011,PAYLOAD,2023-10-02 13:39:30,15.08829867,0.0001668,53.219,345.1414,79.2612,280.8568,-0.00022247,-3.826e-05,0.0,0 STARLINK-5011,1 53925U 22119AR  23275.56909788 -.00003826  00000-0 -22247-3 0  9991,2 53925  53.2190 345.1414 0001668  79.2612 280.8568 15.08829867 57605,6917.911,95.438,540.93,538.622,0.0
53925.0,STARLINK-5011,PAYLOAD,2023-10-03 11:54:53,15.08856749,0.000168,53.2174,340.9773,68.674,291.4431,0.0010831,0.00016999,0.0,0 STARLINK-5011,1 53925U 22119AR  23276.49645571  .00016999  00000-0  10831-2 0  9999,2 53925  53.2174 340.9773 0001680  68.6740 291.4431 15.08856749 57321,6917.829,95.436,540.856,538.532,0.0
